{"fetched_at":"2026-07-21T17:53:34.868Z","source":"https://celestrak.org/NORAD/elements/gp.php?NAME=JILIN&FORMAT=JSON","constellation":"jilin-1-gaofen","records":[{"OBJECT_NAME":"JILIN-1 GAOFEN 03D51","OBJECT_ID":"2022-155B","EPOCH":"2026-07-21T06:25:30.028224","CLASSIFICATION_TYPE":"U","MEAN_MOTION":15.65335335,"ECCENTRICITY":0.00046863,"INCLINATION":97.6266,"RA_OF_ASC_NODE":349.787,"ARG_OF_PERICENTER":210.3479,"MEAN_ANOMALY":149.7509,"EPHEMERIS_TYPE":0,"NORAD_CAT_ID":54252,"ELEMENT_SET_NO":999,"REV_AT_EPOCH":20507,"BSTAR":0.0005072106,"MEAN_MOTION_DOT":0.00050519,"MEAN_MOTION_DDOT":0},{"OBJECT_NAME":"JILIN-1 GAOFEN 03D53","OBJECT_ID":"2022-155C","EPOCH":"2026-07-21T06:53:41.105184","CLASSIFICATION_TYPE":"U","MEAN_MOTION":15.54693288,"ECCENTRICITY":0.00052031,"INCLINATION":97.6257,"RA_OF_ASC_NODE":344.9064,"ARG_OF_PERICENTER":226.7201,"MEAN_ANOMALY":133.3619,"EPHEMERIS_TYPE":0,"NORAD_CAT_ID":54253,"ELEMENT_SET_NO":999,"REV_AT_EPOCH":20478,"BSTAR":0.00046726763,"MEAN_MOTION_DOT":0.00030963,"MEAN_MOTION_DDOT":0},{"OBJECT_NAME":"JILIN-1 GAOFEN 03D52","OBJECT_ID":"2022-155E","EPOCH":"2026-07-21T06:24:38.858688","CLASSIFICATION_TYPE":"U","MEAN_MOTION":15.62438531,"ECCENTRICITY":0.00040964,"INCLINATION":97.624,"RA_OF_ASC_NODE":347.9672,"ARG_OF_PERICENTER":223.7213,"MEAN_ANOMALY":136.3721,"EPHEMERIS_TYPE":0,"NORAD_CAT_ID":54255,"ELEMENT_SET_NO":999,"REV_AT_EPOCH":20502,"BSTAR":0.00048681627,"MEAN_MOTION_DOT":0.00043229,"MEAN_MOTION_DDOT":0},{"OBJECT_NAME":"JILIN-1 GAOFEN 03D50","OBJECT_ID":"2022-167J","EPOCH":"2026-07-21T06:58:30.369792","CLASSIFICATION_TYPE":"U","MEAN_MOTION":15.35140514,"ECCENTRICITY":0.00046764,"INCLINATION":97.6865,"RA_OF_ASC_NODE":11.5497,"ARG_OF_PERICENTER":0.8468,"MEAN_ANOMALY":359.2781,"EPHEMERIS_TYPE":0,"NORAD_CAT_ID":54690,"ELEMENT_SET_NO":999,"REV_AT_EPOCH":20058,"BSTAR":0.00025023187,"MEAN_MOTION_DOT":0.00008451,"MEAN_MOTION_DDOT":0},{"OBJECT_NAME":"JILIN-1 GAOFEN 03D47","OBJECT_ID":"2022-167L","EPOCH":"2026-07-21T07:08:13.511040","CLASSIFICATION_TYPE":"U","MEAN_MOTION":15.34418772,"ECCENTRICITY":0.00072738,"INCLINATION":97.6962,"RA_OF_ASC_NODE":13.2957,"ARG_OF_PERICENTER":8.9858,"MEAN_ANOMALY":351.1513,"EPHEMERIS_TYPE":0,"NORAD_CAT_ID":54692,"ELEMENT_SET_NO":999,"REV_AT_EPOCH":20057,"BSTAR":0.00024524748,"MEAN_MOTION_DOT":0.00008096,"MEAN_MOTION_DDOT":0},{"OBJECT_NAME":"JILIN-1 GAOFEN 03D49","OBJECT_ID":"2022-167N","EPOCH":"2026-07-21T07:09:35.100288","CLASSIFICATION_TYPE":"U","MEAN_MOTION":15.38133434,"ECCENTRICITY":0.00055673,"INCLINATION":97.6839,"RA_OF_ASC_NODE":13.9792,"ARG_OF_PERICENTER":30.4419,"MEAN_ANOMALY":329.7148,"EPHEMERIS_TYPE":0,"NORAD_CAT_ID":54694,"ELEMENT_SET_NO":999,"REV_AT_EPOCH":20073,"BSTAR":0.00026019653,"MEAN_MOTION_DOT":0.00009686,"MEAN_MOTION_DDOT":0},{"OBJECT_NAME":"JILIN-1 GAOFEN 03D48","OBJECT_ID":"2022-167P","EPOCH":"2026-07-21T06:43:34.881312","CLASSIFICATION_TYPE":"U","MEAN_MOTION":15.35873925,"ECCENTRICITY":0.00058683,"INCLINATION":97.6911,"RA_OF_ASC_NODE":13.2703,"ARG_OF_PERICENTER":9.4005,"MEAN_ANOMALY":350.7347,"EPHEMERIS_TYPE":0,"NORAD_CAT_ID":54695,"ELEMENT_SET_NO":999,"REV_AT_EPOCH":20062,"BSTAR":0.00024724083,"MEAN_MOTION_DOT":0.0000855,"MEAN_MOTION_DDOT":0},{"OBJECT_NAME":"JILIN GAOFEN OBJECT A","OBJECT_ID":"2026-080A","EPOCH":"2026-07-17T17:16:13.911744","CLASSIFICATION_TYPE":"U","MEAN_MOTION":15.09211185,"ECCENTRICITY":0.00109955,"INCLINATION":97.6607,"RA_OF_ASC_NODE":274.1951,"ARG_OF_PERICENTER":325.9072,"MEAN_ANOMALY":34.1449,"EPHEMERIS_TYPE":0,"NORAD_CAT_ID":68691,"ELEMENT_SET_NO":999,"REV_AT_EPOCH":1426,"BSTAR":0.00012113513,"MEAN_MOTION_DOT":0.00001863,"MEAN_MOTION_DDOT":0},{"OBJECT_NAME":"JILIN GAOFEN OBJECT B","OBJECT_ID":"2026-080B","EPOCH":"2026-07-21T05:12:08.248032","CLASSIFICATION_TYPE":"U","MEAN_MOTION":15.08935689,"ECCENTRICITY":0.00155031,"INCLINATION":97.6582,"RA_OF_ASC_NODE":277.6968,"ARG_OF_PERICENTER":291.0049,"MEAN_ANOMALY":68.952,"EPHEMERIS_TYPE":0,"NORAD_CAT_ID":68692,"ELEMENT_SET_NO":999,"REV_AT_EPOCH":1479,"BSTAR":0.00024569798,"MEAN_MOTION_DOT":0.00003822,"MEAN_MOTION_DDOT":0},{"OBJECT_NAME":"JILIN GAOFEN OBJECT C","OBJECT_ID":"2026-080C","EPOCH":"2026-07-20T16:52:18.024096","CLASSIFICATION_TYPE":"U","MEAN_MOTION":15.08925561,"ECCENTRICITY":0.00131621,"INCLINATION":97.6586,"RA_OF_ASC_NODE":277.1543,"ARG_OF_PERICENTER":294.4276,"MEAN_ANOMALY":65.5579,"EPHEMERIS_TYPE":0,"NORAD_CAT_ID":68693,"ELEMENT_SET_NO":999,"REV_AT_EPOCH":1471,"BSTAR":0.00020074535,"MEAN_MOTION_DOT":0.00003108,"MEAN_MOTION_DDOT":0},{"OBJECT_NAME":"JILIN GAOFEN OBJECT D","OBJECT_ID":"2026-080D","EPOCH":"2026-07-21T06:48:28.737216","CLASSIFICATION_TYPE":"U","MEAN_MOTION":15.08994816,"ECCENTRICITY":0.00161043,"INCLINATION":97.6647,"RA_OF_ASC_NODE":277.843,"ARG_OF_PERICENTER":302.8466,"MEAN_ANOMALY":57.1211,"EPHEMERIS_TYPE":0,"NORAD_CAT_ID":68694,"ELEMENT_SET_NO":999,"REV_AT_EPOCH":1478,"BSTAR":0.00024340049,"MEAN_MOTION_DOT":0.00003793,"MEAN_MOTION_DDOT":0},{"OBJECT_NAME":"JILIN GAOFEN OBJECT E","OBJECT_ID":"2026-080E","EPOCH":"2026-07-21T06:22:19.807392","CLASSIFICATION_TYPE":"U","MEAN_MOTION":15.08955098,"ECCENTRICITY":0.00133343,"INCLINATION":97.6627,"RA_OF_ASC_NODE":277.8435,"ARG_OF_PERICENTER":313.8467,"MEAN_ANOMALY":46.1659,"EPHEMERIS_TYPE":0,"NORAD_CAT_ID":68695,"ELEMENT_SET_NO":999,"REV_AT_EPOCH":1476,"BSTAR":0.00020852771,"MEAN_MOTION_DOT":0.00003233,"MEAN_MOTION_DDOT":0},{"OBJECT_NAME":"JILIN GAOFEN OBJECT F","OBJECT_ID":"2026-080F","EPOCH":"2026-07-21T06:21:00.864576","CLASSIFICATION_TYPE":"U","MEAN_MOTION":15.08938913,"ECCENTRICITY":0.00120045,"INCLINATION":97.6599,"RA_OF_ASC_NODE":277.8086,"ARG_OF_PERICENTER":316.725,"MEAN_ANOMALY":43.3034,"EPHEMERIS_TYPE":0,"NORAD_CAT_ID":68696,"ELEMENT_SET_NO":999,"REV_AT_EPOCH":1476,"BSTAR":0.00020459596,"MEAN_MOTION_DOT":0.00003169,"MEAN_MOTION_DDOT":0},{"OBJECT_NAME":"JILIN GAOFEN OBJECT G","OBJECT_ID":"2026-080G","EPOCH":"2026-07-21T06:01:00.987168","CLASSIFICATION_TYPE":"U","MEAN_MOTION":15.0892901,"ECCENTRICITY":0.0014266,"INCLINATION":97.6641,"RA_OF_ASC_NODE":277.8825,"ARG_OF_PERICENTER":312.8137,"MEAN_ANOMALY":47.1891,"EPHEMERIS_TYPE":0,"NORAD_CAT_ID":68697,"ELEMENT_SET_NO":999,"REV_AT_EPOCH":1476,"BSTAR":0.00020683003,"MEAN_MOTION_DOT":0.00003205,"MEAN_MOTION_DDOT":0},{"OBJECT_NAME":"JILIN GAOFEN OBJECT H","OBJECT_ID":"2026-080H","EPOCH":"2026-07-20T17:14:00.830688","CLASSIFICATION_TYPE":"U","MEAN_MOTION":15.08952027,"ECCENTRICITY":0.0014578,"INCLINATION":97.6623,"RA_OF_ASC_NODE":277.3399,"ARG_OF_PERICENTER":316.7658,"MEAN_ANOMALY":43.2425,"EPHEMERIS_TYPE":0,"NORAD_CAT_ID":68698,"ELEMENT_SET_NO":999,"REV_AT_EPOCH":1468,"BSTAR":0.00014314856,"MEAN_MOTION_DOT":0.00002199,"MEAN_MOTION_DDOT":0}]}
