JILIN-1 GAOFEN 03D51    
1 54252U 22155B   26202.26770866  .00050519  00000+0  50721-3 0  9994
2 54252  97.6266 349.7870 0004686 210.3479 149.7509 15.65335335205072
JILIN-1 GAOFEN 03D53    
1 54253U 22155C   26202.28728131  .00030963  00000+0  46727-3 0  9997
2 54253  97.6257 344.9064 0005203 226.7201 133.3619 15.54693288204785
JILIN-1 GAOFEN 03D52    
1 54255U 22155E   26202.26711642  .00043229  00000+0  48682-3 0  9997
2 54255  97.6240 347.9672 0004096 223.7213 136.3721 15.62438531205028
JILIN-1 GAOFEN 03D50    
1 54690U 22167J   26202.29062928  .00008451  00000+0  25023-3 0  9994
2 54690  97.6865  11.5497 0004676   0.8468 359.2781 15.35140514200582
JILIN-1 GAOFEN 03D47    
1 54692U 22167L   26202.29737860  .00008096  00000+0  24525-3 0  9991
2 54692  97.6962  13.2957 0007273   8.9858 351.1513 15.34418772200576
JILIN-1 GAOFEN 03D49    
1 54694U 22167N   26202.29832292  .00009686  00000+0  26020-3 0  9996
2 54694  97.6839  13.9792 0005567  30.4419 329.7148 15.38133434200738
JILIN-1 GAOFEN 03D48    
1 54695U 22167P   26202.28026483  .00008550  00000+0  24724-3 0  9991
2 54695  97.6911  13.2703 0005868   9.4005 350.7347 15.35873925200622
JILIN GAOFEN OBJECT A   
1 68691U 26080A   26198.71960546  .00001863  00000+0  12114-3 0  9999
2 68691  97.6607 274.1951 0010995 325.9072  34.1449 15.09211185 14269
JILIN GAOFEN OBJECT B   
1 68692U 26080B   26202.21676213  .00003822  00000+0  24570-3 0  9992
2 68692  97.6582 277.6968 0015503 291.0049  68.9520 15.08935689 14799
JILIN GAOFEN OBJECT C   
1 68693U 26080C   26201.70298639  .00003108  00000+0  20075-3 0  9991
2 68693  97.6586 277.1543 0013162 294.4276  65.5579 15.08925561 14713
JILIN GAOFEN OBJECT D   
1 68694U 26080D   26202.28366594  .00003793  00000+0  24340-3 0  9991
2 68694  97.6647 277.8430 0016104 302.8466  57.1211 15.08994816 14784
JILIN GAOFEN OBJECT E   
1 68695U 26080E   26202.26550703  .00003233  00000+0  20853-3 0  9991
2 68695  97.6627 277.8435 0013334 313.8467  46.1659 15.08955098 14764
JILIN GAOFEN OBJECT F   
1 68696U 26080F   26202.26459334  .00003169  00000+0  20460-3 0  9992
2 68696  97.6599 277.8086 0012004 316.7250  43.3034 15.08938913 14763
JILIN GAOFEN OBJECT G   
1 68697U 26080G   26202.25070587  .00003205  00000+0  20683-3 0  9999
2 68697  97.6641 277.8825 0014266 312.8137  47.1891 15.08929010 14767
JILIN GAOFEN OBJECT H   
1 68698U 26080H   26201.71806517  .00002199  00000+0  14315-3 0  9996
2 68698  97.6623 277.3399 0014578 316.7658  43.2425 15.08952027 14681
